[Satellite]
VERSION=1.1
NAME=IRIDIUM 118 [+]
NICKNAME=IRIDIUM 118 [+]
TLE1=1 42807U 17039E   18020.91735108 -.00000009  00000-0 -10355-4 0  9995
TLE2=2 42807  86.3982 196.2153 0002465  88.2686 271.8792 14.34216874 30022
